SENTINEL-6              
1 46984U 20086A   24001.60261332 -.00000054  00000+0  31477-4 0  9992
2 46984  66.0389 199.3442 0007637 269.6041  90.4099 12.80929714145361
